[
  {
    "OBJECT_NAME": "STARLINK-31583",
    "OBJECT_ID": "24060X",
    "EPOCH": "2025-11-11T04:03:06.086880",
    "MEAN_MOTION": 15.27613112,
    "ECCENTRICITY": 0.0002414,
    "INCLINATION": 43.0039,
    "RA_OF_ASC_NODE": 198.2027,
    "ARG_OF_PERICENTER": 255.2393,
    "MEAN_ANOMALY": 104.8191,
    "EPHEMERIS_TYPE": 0,
    "CLASSIFICATION_TYPE": "U",
    "NORAD_CAT_ID": 59369,
    "ELEMENT_SET_NO": 999,
    "REV_AT_EPOCH": 9206,
    "BSTAR": 8.7428e-05,
    "MEAN_MOTION_DOT": 2.146e-05,
    "MEAN_MOTION_DDOT": 0.0,
    "TLE_LINE1": "1 59369U 24060X   25315.16882045  .00002146  00000+0  87428-4 0  9999",
    "TLE_LINE2": "2 59369  43.0039 198.2027 0002414 255.2393 104.8191 15.27613112 92062",
    "COMMENT": "Grouped by shell and plane from TLE"
  },
  {
    "OBJECT_NAME": "STARLINK-31461",
    "OBJECT_ID": "24060Y",
    "EPOCH": "2025-11-11T02:45:37.317600",
    "MEAN_MOTION": 15.27589076,
    "ECCENTRICITY": 0.0001039,
    "INCLINATION": 43.0004,
    "RA_OF_ASC_NODE": 198.6628,
    "ARG_OF_PERICENTER": 282.0031,
    "MEAN_ANOMALY": 78.0704,
    "EPHEMERIS_TYPE": 0,
    "CLASSIFICATION_TYPE": "U",
    "NORAD_CAT_ID": 59370,
    "ELEMENT_SET_NO": 999,
    "REV_AT_EPOCH": 9199,
    "BSTAR": 0.00010292999999999999,
    "MEAN_MOTION_DOT": 2.572e-05,
    "MEAN_MOTION_DDOT": 0.0,
    "TLE_LINE1": "1 59370U 24060Y   25315.11501525  .00002572  00000+0  10293-3 0  9995",
    "TLE_LINE2": "2 59370  43.0004 198.6628 0001039 282.0031  78.0704 15.27589076 91990",
    "COMMENT": "Grouped by shell and plane from TLE"
  },
  {
    "OBJECT_NAME": "STARLINK-31936",
    "OBJECT_ID": "24098T",
    "EPOCH": "2025-11-11T02:57:25.332768",
    "MEAN_MOTION": 15.27594714,
    "ECCENTRICITY": 0.0001658,
    "INCLINATION": 43.002,
    "RA_OF_ASC_NODE": 195.2592,
    "ARG_OF_PERICENTER": 263.4207,
    "MEAN_ANOMALY": 96.6456,
    "EPHEMERIS_TYPE": 0,
    "CLASSIFICATION_TYPE": "U",
    "NORAD_CAT_ID": 59875,
    "ELEMENT_SET_NO": 999,
    "REV_AT_EPOCH": 8407,
    "BSTAR": 0.00033611000000000003,
    "MEAN_MOTION_DOT": 9.002e-05,
    "MEAN_MOTION_DDOT": 0.0,
    "TLE_LINE1": "1 59875U 24098T   25315.12320987  .00009002  00000+0  33611-3 0  9992",
    "TLE_LINE2": "2 59875  43.0020 195.2592 0001658 263.4207  96.6456 15.27594714 84072",
    "COMMENT": "Grouped by shell and plane from TLE"
  },
  {
    "OBJECT_NAME": "STARLINK-33660",
    "OBJECT_ID": "25053P",
    "EPOCH": "2025-11-11T00:48:49.990752",
    "MEAN_MOTION": 15.27655655,
    "ECCENTRICITY": 0.0001546,
    "INCLINATION": 42.9988,
    "RA_OF_ASC_NODE": 192.1395,
    "ARG_OF_PERICENTER": 269.0698,
    "MEAN_ANOMALY": 90.9976,
    "EPHEMERIS_TYPE": 0,
    "CLASSIFICATION_TYPE": "U",
    "NORAD_CAT_ID": 63278,
    "ELEMENT_SET_NO": 999,
    "REV_AT_EPOCH": 3804,
    "BSTAR": 0.0014103,
    "MEAN_MOTION_DOT": 0.0003884,
    "MEAN_MOTION_DDOT": 0.0,
    "TLE_LINE1": "1 63278U 25053P   25315.03391193  .00038840  00000+0  14103-2 0  9999",
    "TLE_LINE2": "2 63278  42.9988 192.1395 0001546 269.0698  90.9976 15.27655655 38046",
    "COMMENT": "Grouped by shell and plane from TLE"
  },
  {
    "OBJECT_NAME": "STARLINK-33646",
    "OBJECT_ID": "25053R",
    "EPOCH": "2025-11-11T01:31:09.901920",
    "MEAN_MOTION": 15.27600034,
    "ECCENTRICITY": 0.0001287,
    "INCLINATION": 43.001,
    "RA_OF_ASC_NODE": 191.4974,
    "ARG_OF_PERICENTER": 277.5246,
    "MEAN_ANOMALY": 82.546,
    "EPHEMERIS_TYPE": 0,
    "CLASSIFICATION_TYPE": "U",
    "NORAD_CAT_ID": 63280,
    "ELEMENT_SET_NO": 999,
    "REV_AT_EPOCH": 3805,
    "BSTAR": 0.00084919,
    "MEAN_MOTION_DOT": 0.00023194,
    "MEAN_MOTION_DDOT": 0.0,
    "TLE_LINE1": "1 63280U 25053R   25315.06330905  .00023194  00000+0  84919-3 0  9998",
    "TLE_LINE2": "2 63280  43.0010 191.4974 0001287 277.5246  82.5460 15.27600034 38054",
    "COMMENT": "Grouped by shell and plane from TLE"
  },
  {
    "OBJECT_NAME": "STARLINK-33665",
    "OBJECT_ID": "25053S",
    "EPOCH": "2025-11-11T00:59:44.116512",
    "MEAN_MOTION": 15.27623199,
    "ECCENTRICITY": 0.0001646,
    "INCLINATION": 43.0003,
    "RA_OF_ASC_NODE": 191.3276,
    "ARG_OF_PERICENTER": 265.0401,
    "MEAN_ANOMALY": 95.0263,
    "EPHEMERIS_TYPE": 0,
    "CLASSIFICATION_TYPE": "U",
    "NORAD_CAT_ID": 63281,
    "ELEMENT_SET_NO": 999,
    "REV_AT_EPOCH": 3805,
    "BSTAR": 0.0014426,
    "MEAN_MOTION_DOT": 0.00039702,
    "MEAN_MOTION_DDOT": 0.0,
    "TLE_LINE1": "1 63281U 25053S   25315.04148283  .00039702  00000+0  14426-2 0  9990",
    "TLE_LINE2": "2 63281  43.0003 191.3276 0001646 265.0401  95.0263 15.27623199 38052",
    "COMMENT": "Grouped by shell and plane from TLE"
  },
  {
    "OBJECT_NAME": "STARLINK-33603",
    "OBJECT_ID": "25053T",
    "EPOCH": "2025-11-11T00:54:23.347872",
    "MEAN_MOTION": 15.27607442,
    "ECCENTRICITY": 0.0002152,
    "INCLINATION": 43.0023,
    "RA_OF_ASC_NODE": 192.1509,
    "ARG_OF_PERICENTER": 268.2888,
    "MEAN_ANOMALY": 91.7717,
    "EPHEMERIS_TYPE": 0,
    "CLASSIFICATION_TYPE": "U",
    "NORAD_CAT_ID": 63282,
    "ELEMENT_SET_NO": 999,
    "REV_AT_EPOCH": 3804,
    "BSTAR": 0.0011664,
    "MEAN_MOTION_DOT": 0.00032001,
    "MEAN_MOTION_DDOT": 0.0,
    "TLE_LINE1": "1 63282U 25053T   25315.03777023  .00032001  00000+0  11664-2 0  9996",
    "TLE_LINE2": "2 63282  43.0023 192.1509 0002152 268.2888  91.7717 15.27607442 38049",
    "COMMENT": "Grouped by shell and plane from TLE"
  },
  {
    "OBJECT_NAME": "STARLINK-33669",
    "OBJECT_ID": "25053U",
    "EPOCH": "2025-11-11T01:10:51.772512",
    "MEAN_MOTION": 15.27595861,
    "ECCENTRICITY": 6.53e-05,
    "INCLINATION": 42.9965,
    "RA_OF_ASC_NODE": 191.3919,
    "ARG_OF_PERICENTER": 276.3497,
    "MEAN_ANOMALY": 83.728,
    "EPHEMERIS_TYPE": 0,
    "CLASSIFICATION_TYPE": "U",
    "NORAD_CAT_ID": 63283,
    "ELEMENT_SET_NO": 999,
    "REV_AT_EPOCH": 3805,
    "BSTAR": 0.0011602,
    "MEAN_MOTION_DOT": 0.00031816,
    "MEAN_MOTION_DDOT": 0.0,
    "TLE_LINE1": "1 63283U 25053U   25315.04921033  .00031816  00000+0  11602-2 0  9995",
    "TLE_LINE2": "2 63283  42.9965 191.3919 0000653 276.3497  83.7280 15.27595861 38057",
    "COMMENT": "Grouped by shell and plane from TLE"
  },
  {
    "OBJECT_NAME": "STARLINK-33662",
    "OBJECT_ID": "25053W",
    "EPOCH": "2025-11-11T01:42:18.084096",
    "MEAN_MOTION": 15.27621772,
    "ECCENTRICITY": 0.0001255,
    "INCLINATION": 42.9982,
    "RA_OF_ASC_NODE": 191.5491,
    "ARG_OF_PERICENTER": 273.5642,
    "MEAN_ANOMALY": 86.5066,
    "EPHEMERIS_TYPE": 0,
    "CLASSIFICATION_TYPE": "U",
    "NORAD_CAT_ID": 63285,
    "ELEMENT_SET_NO": 999,
    "REV_AT_EPOCH": 3805,
    "BSTAR": 0.0012551,
    "MEAN_MOTION_DOT": 0.00034482,
    "MEAN_MOTION_DDOT": 0.0,
    "TLE_LINE1": "1 63285U 25053W   25315.07104264  .00034482  00000+0  12551-2 0  9995",
    "TLE_LINE2": "2 63285  42.9982 191.5491 0001255 273.5642  86.5066 15.27621772 38059",
    "COMMENT": "Grouped by shell and plane from TLE"
  },
  {
    "OBJECT_NAME": "STARLINK-33613",
    "OBJECT_ID": "25053X",
    "EPOCH": "2025-11-11T00:39:35.828064",
    "MEAN_MOTION": 15.27615812,
    "ECCENTRICITY": 0.0001477,
    "INCLINATION": 42.9991,
    "RA_OF_ASC_NODE": 192.0901,
    "ARG_OF_PERICENTER": 263.9825,
    "MEAN_ANOMALY": 96.0859,
    "EPHEMERIS_TYPE": 0,
    "CLASSIFICATION_TYPE": "U",
    "NORAD_CAT_ID": 63286,
    "ELEMENT_SET_NO": 999,
    "REV_AT_EPOCH": 3804,
    "BSTAR": 0.0011628,
    "MEAN_MOTION_DOT": 0.00031909,
    "MEAN_MOTION_DDOT": 0.0,
    "TLE_LINE1": "1 63286U 25053X   25315.02749801  .00031909  00000+0  11628-2 0  9998",
    "TLE_LINE2": "2 63286  42.9991 192.0901 0001477 263.9825  96.0859 15.27615812 38047",
    "COMMENT": "Grouped by shell and plane from TLE"
  },
  {
    "OBJECT_NAME": "STARLINK-33680",
    "OBJECT_ID": "25053Y",
    "EPOCH": "2025-11-11T01:20:05.543808",
    "MEAN_MOTION": 15.27613769,
    "ECCENTRICITY": 0.0001432,
    "INCLINATION": 43.0015,
    "RA_OF_ASC_NODE": 191.441,
    "ARG_OF_PERICENTER": 263.5933,
    "MEAN_ANOMALY": 96.4756,
    "EPHEMERIS_TYPE": 0,
    "CLASSIFICATION_TYPE": "U",
    "NORAD_CAT_ID": 63287,
    "ELEMENT_SET_NO": 999,
    "REV_AT_EPOCH": 3810,
    "BSTAR": 0.00071168,
    "MEAN_MOTION_DOT": 0.00019393,
    "MEAN_MOTION_DDOT": 0.0,
    "TLE_LINE1": "1 63287U 25053Y   25315.05561972  .00019393  00000+0  71168-3 0  9992",
    "TLE_LINE2": "2 63287  43.0015 191.4410 0001432 263.5933  96.4756 15.27613769 38108",
    "COMMENT": "Grouped by shell and plane from TLE"
  }
]